#dP2020  8  4  0  0  0.00000000      97 __u+U IGS14 FIT  IAC
## 2117 172800.00000000   900.00000000 59065 0.0000000000000
+  122   C01C02C03C04C05C06C07C08C09C10C11C12C13C14C16C19C20
+        C21C22C23C24C25C26C27C28C29C30C32C33C34C35C36C37C38
+        C39C40C43C44C45C46C60E01E02E03E04E05E07E08E09E11E12
+        E13E14E15E18E19E21E24E25E26E27E30E31E33E36G01G02G03
+        G04G05G06G07G08G09G10G11G12G13G15G16G17G18G19G20G21
+        G22G23G24G25G26G27G28G29G30G31G32J01J02J03J07R01R02
+        R03R04R05R07R08R09R11R12R13R14R15R16R17R18R19R20R21
+        R23R24R26  0  0  0  0  0  0  0  0  0  0  0  0  0  0
++         0  0  0  0  0  0  0  0  0  0  0  0  0  0  0  0  0
++         0  0  0  0  0  0  0  0  0  0  0  0  0  0  0  0  0
++         0  0  0  0  0  0  0  0  0  0  0  0  0  0  0  0  0
++         0  0  0  0  0  0  0  0  0  0  0  0  0  0  0  0  0
++         0  0  0  0  0  0  0  0  0  0  0  0  0  0  0  0  0
++         0  0  0  0  0  0  0  0  0  0  0  0  0  0  0  0  0
++         0  0  0  0  0  0  0  0  0  0  0  0  0  0  0  0  0
++         0  0  0  0  0  0  0  0  0  0  0  0  0  0  0  0  0
%c M  cc GPS ccc cccc cccc cccc cccc ccccc ccccc ccccc ccccc
%c cc cc ccc ccc cccc cccc cccc cccc ccccc ccccc ccccc ccccc
%f  1.2500000  1.025000000  0.00000000000  0.000000000000000
%f  0.0000000  0.000000000  0.00000000000  0.000000000000000
%i    0    0    0    0      0      0      0      0         0
%i    0    0    0    0      0      0      0      0         0
/* INFORMATION & ANALYSIS CENTER (IAC)            FINAL DATA
/* S/V CLOCKS ARE ALIGNED TO GNSS TIME                      
/* G:C1WC2W R:C1PC2P E:C1XC5X C:C2IC6I J:C1CC2S             
/* PCV:IGS14_2114 OL/AL:FES2004  NONE     YN ORB:CoN CLK:CoN
*  2020 08 04 10 45  0.00000000
PC01 -34341.234615  24433.263752   -409.438188   -263.646606
PC02   4427.962308  41947.957800    832.746080    169.942245
PC03 -14809.631024  39508.089462    422.114062    811.617406
PC04 -39649.683707  14362.279215   -447.267228    -58.127138
PC05      0.000000      0.000000      0.000000 999999.999999
PC06  -6293.656486  33490.055967  25520.872182    805.448854
PC07 -18688.472697  22914.766388 -29980.303847    104.616453
PC08 -21682.273960  35419.026183   6120.069896   -422.241226
PC09   3047.221585  39699.698789  14719.164575    721.322223
PC10  -3642.897296  25952.900740 -32835.743249   -219.671378
PC11  10071.376554  24140.200660   9695.333699   -533.934435
PC12  -1238.496322  26583.312661  -8316.690634    455.863542
PC13 -10732.042649  36084.597835  18757.143322    578.291810
PC14  17441.469458  16715.939389  13942.852838    769.080856
PC16  -3530.122771  34698.578324  23913.966997   -592.778527
PC19 -24123.777978 -12881.044374  -5586.721646    497.773122
PC20  -9311.859080 -17728.124295 -19434.332669   -836.267790
PC21 -11737.865708  12147.375354  22234.066087   -663.133399
PC22 -25293.245002   -512.224936  11819.923189   -766.945745
PC23  23874.346111  -9229.240171 -11095.506491   -845.075140
PC24  -2049.766523  19710.893222 -19637.146705   -750.073696
PC25  16071.983102   6653.944200 -21822.691158   -709.582346
PC26 -17214.092410  20927.189362  -6605.049175    779.787568
PC27   7822.834445 -21533.535049  15903.269587    375.867892
PC28  15608.985512  -2871.746659  22951.799783   -186.855843
PC29 -14898.072261 -16848.731281 -16531.314427    265.231718
PC30  -5306.688118 -27387.732994    -74.050324    356.242349
PC32  11612.384269 -12249.005740 -22207.300942   -880.410226
PC33  24111.099886  12821.886250   5695.148025   -794.616349
PC34   5549.076140  27353.423361    561.285902   -885.855286
PC35 -15608.890231   3196.000658 -22916.316516   -718.256466
PC36 -15726.729656  -7252.284893  21916.039024   -888.948769
PC37  18142.090328 -20353.800923   5993.450494   -888.145577
PC38 -19959.707657  36319.766340   7337.535539     92.694982
PC39  -1698.333219  34414.752124  24378.164526     20.285985
PC40  -9621.422328  20639.922382 -35492.973354     67.962001
PC43  14768.030451  17246.377443  16227.403052   -312.295562
PC44  -7328.465187  21682.398823 -15994.199817   -290.199095
PC45 -23812.977377   9336.533041  11158.866340    196.448482
PC46   1491.284250 -19429.890719  20001.419936    703.729170
PC60   7280.372426  41499.566339  -1500.589836     -0.829396
PE01  -2746.895036 -16246.245421  24596.730742   -912.430904
PE02   2862.590330  16214.376193 -24592.711902    152.027969
PE03  10895.911174  24322.458358  12864.166585   -327.976514
PE04 -22769.081900 -18197.373571   5181.048263   -579.531543
PE05  -7507.822033  16255.112243  23575.329477   -357.541919
PE07  21368.435419   1231.708169 -20431.467352   -418.038857
PE08  22913.552442  17924.987623  -5411.754966   6139.976051
PE09 -21260.027155  -1092.931496  20582.554789   5974.809775
PE11 -17547.625623   9223.073471 -21997.728563   4558.961671
PE12 -12326.095041 -13306.985147 -23393.603785   5672.863548
PE13  17436.250441  -9037.421798  22144.521805    402.780725
PE14 -15934.997204  13380.508016 -24593.943988  -1108.069343
PE15  12401.634211  13040.998654  23500.294898    857.545580
PE18   6203.876403 -17345.531542  15803.478991  -1212.393248
PE19  -9131.355385 -24068.007691 -14606.012189     44.615585
PE21  18090.531631 -16214.740901  16911.279541   -613.882492
PE24 -28886.454581   6325.888594   1139.895651   5315.392136
PE25 -18238.315718  16168.142331 -16789.735756   -514.618618
PE26  12193.124508 -25975.805324   7279.276748   2882.292603
PE27  28818.524690  -6707.095178   -797.762958    163.053944
PE30  22195.928024   7145.323429 -18237.973434   3693.233239
PE31 -22562.225309  -6704.510919  17966.417875   -473.491154
PE33    -78.430878 -27460.396668 -11048.739378   -464.131802
PE36 -12235.038662  25803.728371  -7789.452517    525.264213
PG01  14634.370250 -21820.639449   2115.868355     31.472266
PG02 -17385.976819   5818.624256 -18565.403704   -497.254795
PG03  14655.451300 -12533.337831 -18293.616992   -260.035947
PG04   4716.357965 -18583.039900 -18355.180080   -120.548013
PG05 -26548.180763   1834.488940   1587.807145    -18.089911
PG06 -12013.592523  -8664.082782 -21994.030868   -311.604685
PG07   2199.926752 -22603.751310  13676.057538   -342.589819
PG08  12537.592773  -8310.891658  21894.853561    -43.307666
PG09  -5879.530783 -23903.282917 -10006.550944   -264.875104
PG10  16855.608406  11799.118115  17018.697167   -418.391772
PG11  12268.832261 -18377.860599  14485.403224   -202.221427
PG12 -15965.143751  11117.294176 -18245.791158     84.994735
PG13 -16083.044973  -1075.135770  21008.561518     32.740882
PG15 -11921.169710  10350.275145  21019.909098   -212.933826
PG16  26316.870835   -738.706863   4793.785288   -191.320898
PG17 -14657.008440 -21386.705893  -5446.213997    306.020849
PG18  -2717.290385  22543.180205  13737.219022    262.279128
PG19 -16744.125422 -16106.753386 -13217.696540   -122.998178
PG20   4973.248694  15124.343232  21198.153268    527.133819
PG21  14183.971319   6804.685215  22167.548836     31.704796
PG22  20982.111259 -10659.746013 -11966.579983   -766.960160
PG23   6754.960113  14600.902149  21104.504132     28.477191
PG24 -14765.738574  21222.565684   4943.241955    -16.665443
PG25  -4114.807642  15022.545238 -21723.710949     31.210683
PG26  24566.061168   5599.890492  -8790.092375    255.361013
PG27  17413.219323   3763.988665  19662.455454   -362.763888
PG28 -16814.043640 -12871.200775  16519.718185    692.962894
PG29   1194.731814  22919.831168 -13377.781416   -165.262758
PG30  -6508.254768 -16675.897343  19604.471985   -275.559333
PG31  13737.171642   6896.967291 -21717.211428    -59.980200
PG32  16622.289873  19815.664857  -6296.920602    327.586635
PJ01 -27338.378733  21798.711002  28656.776354   -192.794232
PJ02 -36422.694631  19210.051821  -4653.260644     -1.974788
PJ03 -19068.427936  26998.939534 -21520.038787     -0.307109
PJ07 -25411.849171  33648.568188     20.517962      0.051116
PR01 -20954.622312 -14076.666828  -3720.549448     65.533344
PR02 -19314.983393  -2602.397863  16464.912868    439.411419
PR03  -5636.169940   9417.532414  23068.048327     19.763512
PR04  11171.189200  15792.945562  16655.462968     58.673336
PR05  21652.349447  13481.748517    823.070366     55.243087
PR07   5129.067757  -9678.914645 -22999.181411    -39.007420
PR08 -11157.347787 -15852.429806 -16517.273444    -53.853042
PR09  22543.144996 -11700.846421  -1872.454717    147.098201
PR11   -206.971426 -12341.182729  22335.608447    -32.887262
PR12 -15537.669301  -2246.457918  20131.929978    152.676523
PR13 -22776.618899   9642.562515   6245.253645    -42.044241
PR14 -16617.364397  15605.085404 -11449.249946     54.088806
PR15   -900.411113  12572.691285 -22150.588541    106.960463
PR16  16237.828019   1515.920674 -19671.673429     -5.033435
PR17  -6130.465131  21330.600706 -12532.486445    346.839126
PR18   1287.257798  25159.427256   4167.658415     44.647190
PR19   7420.063841  16115.793712  18316.066273   -105.316229
PR20  10401.247235  -4661.633276  22815.516373   -418.448105
PR21   5748.740614 -21962.771983  11656.590492   -142.746149
PR23  -9544.573796  -9110.304054 -21845.692491    323.058264
PR24 -10776.599987   5547.124471 -22431.974559      8.579736
PR26  10417.114483    751.905917  23276.855412   -363.489685
EOF
